ORBCOMM-X               
1 21576U 91050C   25173.16088608  .00000215  00000+0  76602-4 0  9993
2 21576  98.3432 239.6586 0004117 153.8916 206.2483 14.43266353782837
ORBCOMM FM01            
1 23545U 95017A   25173.10017494  .00003605  00000+0  38068-3 0  9996
2 23545  69.9641  61.8839 0005224 283.6613  76.3960 14.90123895613242
ORBCOMM FM02            
1 23546U 95017B   25173.17421275  .00003994  00000+0  41182-3 0  9992
2 23546  69.9653  81.0743 0006626 288.1081  71.9352 14.90993662612905
ORBCOMM FM08            
1 25112U 97084A   25173.50108578  .00000884  00000+0  28716-3 0  9997
2 25112  45.0155 342.3554 0006109 265.4593  94.5561 14.45825790442149
ORBCOMM FM10            
1 25113U 97084B   25173.48298199  .00000860  00000+0  28157-3 0  9997
2 25113  45.0167 344.8320 0005076 229.6194 130.4215 14.45614006617283
ORBCOMM FM11            
1 25114U 97084C   25173.55755879  .00000826  00000+0  27363-3 0  9999
2 25114  45.0150 345.1163 0005829 232.9578 127.0740 14.45362840442281
ORBCOMM FM12            
1 25115U 97084D   25173.51996567  .00000806  00000+0  26769-3 0  9994
2 25115  45.0159 345.0466 0004915 228.2154 131.8278 14.45385012442048
ORBCOMM FM09            
1 25116U 97084E   25173.55273794  .00000799  00000+0  26642-3 0  9990
2 25116  45.0164 345.8272 0006344 220.7941 139.2436 14.45260427442250
