<?xml version="1.0" encoding="UTF-8"?>
<ndm xmlns:xsi="http://www.w3.org/2001/XMLSchema-instance" xsi:noNamespaceSchemaLocation="https://sanaregistry.org/r/ndmxml_unqualified/ndmxml-2.0.0-master-2.0.xsd">
<omm id="CCSDS_OMM_VERS" version="2.0">
<header><CREATION_DATE/><ORIGINATOR/></header><body><segment><metadata><OBJECT_NAME>ORBCOMM-X</OBJECT_NAME><OBJECT_ID>1991-050C</OBJECT_ID><CENTER_NAME>EARTH</CENTER_NAME><REF_FRAME>TEME</REF_FRAME><TIME_SYSTEM>UTC</TIME_SYSTEM><MEAN_ELEMENT_THEORY>SGP4</MEAN_ELEMENT_THEORY></metadata><data><meanElements><EPOCH>2025-06-22T03:51:40.557312</EPOCH><MEAN_MOTION>14.43266353</MEAN_MOTION><ECCENTRICITY>.0004117</ECCENTRICITY><INCLINATION>98.3432</INCLINATION><RA_OF_ASC_NODE>239.6586</RA_OF_ASC_NODE><ARG_OF_PERICENTER>153.8916</ARG_OF_PERICENTER><MEAN_ANOMALY>206.2483</MEAN_ANOMALY></meanElements><tleParameters><EPHEMERIS_TYPE>0</EPHEMERIS_TYPE><CLASSIFICATION_TYPE>U</CLASSIFICATION_TYPE><NORAD_CAT_ID>21576</NORAD_CAT_ID><ELEMENT_SET_NO>999</ELEMENT_SET_NO><REV_AT_EPOCH>78283</REV_AT_EPOCH><BSTAR>.76602E-4</BSTAR><MEAN_MOTION_DOT>.215E-5</MEAN_MOTION_DOT><MEAN_MOTION_DDOT>0</MEAN_MOTION_DDOT></tleParameters></data></segment></body></omm>
<omm id="CCSDS_OMM_VERS" version="2.0">
<header><CREATION_DATE/><ORIGINATOR/></header><body><segment><metadata><OBJECT_NAME>ORBCOMM FM01</OBJECT_NAME><OBJECT_ID>1995-017A</OBJECT_ID><CENTER_NAME>EARTH</CENTER_NAME><REF_FRAME>TEME</REF_FRAME><TIME_SYSTEM>UTC</TIME_SYSTEM><MEAN_ELEMENT_THEORY>SGP4</MEAN_ELEMENT_THEORY></metadata><data><meanElements><EPOCH>2025-06-22T02:24:15.114816</EPOCH><MEAN_MOTION>14.90123895</MEAN_MOTION><ECCENTRICITY>.0005224</ECCENTRICITY><INCLINATION>69.9641</INCLINATION><RA_OF_ASC_NODE>61.8839</RA_OF_ASC_NODE><ARG_OF_PERICENTER>283.6613</ARG_OF_PERICENTER><MEAN_ANOMALY>76.3960</MEAN_ANOMALY></meanElements><tleParameters><EPHEMERIS_TYPE>0</EPHEMERIS_TYPE><CLASSIFICATION_TYPE>U</CLASSIFICATION_TYPE><NORAD_CAT_ID>23545</NORAD_CAT_ID><ELEMENT_SET_NO>999</ELEMENT_SET_NO><REV_AT_EPOCH>61324</REV_AT_EPOCH><BSTAR>.38068E-3</BSTAR><MEAN_MOTION_DOT>.3605E-4</MEAN_MOTION_DOT><MEAN_MOTION_DDOT>0</MEAN_MOTION_DDOT></tleParameters></data></segment></body></omm>
<omm id="CCSDS_OMM_VERS" version="2.0">
<header><CREATION_DATE/><ORIGINATOR/></header><body><segment><metadata><OBJECT_NAME>ORBCOMM FM02</OBJECT_NAME><OBJECT_ID>1995-017B</OBJECT_ID><CENTER_NAME>EARTH</CENTER_NAME><REF_FRAME>TEME</REF_FRAME><TIME_SYSTEM>UTC</TIME_SYSTEM><MEAN_ELEMENT_THEORY>SGP4</MEAN_ELEMENT_THEORY></metadata><data><meanElements><EPOCH>2025-06-22T04:10:51.981600</EPOCH><MEAN_MOTION>14.90993662</MEAN_MOTION><ECCENTRICITY>.0006626</ECCENTRICITY><INCLINATION>69.9653</INCLINATION><RA_OF_ASC_NODE>81.0743</RA_OF_ASC_NODE><ARG_OF_PERICENTER>288.1081</ARG_OF_PERICENTER><MEAN_ANOMALY>71.9352</MEAN_ANOMALY></meanElements><tleParameters><EPHEMERIS_TYPE>0</EPHEMERIS_TYPE><CLASSIFICATION_TYPE>U</CLASSIFICATION_TYPE><NORAD_CAT_ID>23546</NORAD_CAT_ID><ELEMENT_SET_NO>999</ELEMENT_SET_NO><REV_AT_EPOCH>61290</REV_AT_EPOCH><BSTAR>.41182E-3</BSTAR><MEAN_MOTION_DOT>.3994E-4</MEAN_MOTION_DOT><MEAN_MOTION_DDOT>0</MEAN_MOTION_DDOT></tleParameters></data></segment></body></omm>
<omm id="CCSDS_OMM_VERS" version="2.0">
<header><CREATION_DATE/><ORIGINATOR/></header><body><segment><metadata><OBJECT_NAME>ORBCOMM FM08</OBJECT_NAME><OBJECT_ID>1997-084A</OBJECT_ID><CENTER_NAME>EARTH</CENTER_NAME><REF_FRAME>TEME</REF_FRAME><TIME_SYSTEM>UTC</TIME_SYSTEM><MEAN_ELEMENT_THEORY>SGP4</MEAN_ELEMENT_THEORY></metadata><data><meanElements><EPOCH>2025-06-22T12:01:33.811392</EPOCH><MEAN_MOTION>14.45825790</MEAN_MOTION><ECCENTRICITY>.0006109</ECCENTRICITY><INCLINATION>45.0155</INCLINATION><RA_OF_ASC_NODE>342.3554</RA_OF_ASC_NODE><ARG_OF_PERICENTER>265.4593</ARG_OF_PERICENTER><MEAN_ANOMALY>94.5561</MEAN_ANOMALY></meanElements><tleParameters><EPHEMERIS_TYPE>0</EPHEMERIS_TYPE><CLASSIFICATION_TYPE>U</CLASSIFICATION_TYPE><NORAD_CAT_ID>25112</NORAD_CAT_ID><ELEMENT_SET_NO>999</ELEMENT_SET_NO><REV_AT_EPOCH>44214</REV_AT_EPOCH><BSTAR>.28716E-3</BSTAR><MEAN_MOTION_DOT>.884E-5</MEAN_MOTION_DOT><MEAN_MOTION_DDOT>0</MEAN_MOTION_DDOT></tleParameters></data></segment></body></omm>
<omm id="CCSDS_OMM_VERS" version="2.0">
<header><CREATION_DATE/><ORIGINATOR/></header><body><segment><metadata><OBJECT_NAME>ORBCOMM FM10</OBJECT_NAME><OBJECT_ID>1997-084B</OBJECT_ID><CENTER_NAME>EARTH</CENTER_NAME><REF_FRAME>TEME</REF_FRAME><TIME_SYSTEM>UTC</TIME_SYSTEM><MEAN_ELEMENT_THEORY>SGP4</MEAN_ELEMENT_THEORY></metadata><data><meanElements><EPOCH>2025-06-22T11:35:29.643936</EPOCH><MEAN_MOTION>14.45614006</MEAN_MOTION><ECCENTRICITY>.0005076</ECCENTRICITY><INCLINATION>45.0167</INCLINATION><RA_OF_ASC_NODE>344.8320</RA_OF_ASC_NODE><ARG_OF_PERICENTER>229.6194</ARG_OF_PERICENTER><MEAN_ANOMALY>130.4215</MEAN_ANOMALY></meanElements><tleParameters><EPHEMERIS_TYPE>0</EPHEMERIS_TYPE><CLASSIFICATION_TYPE>U</CLASSIFICATION_TYPE><NORAD_CAT_ID>25113</NORAD_CAT_ID><ELEMENT_SET_NO>999</ELEMENT_SET_NO><REV_AT_EPOCH>61728</REV_AT_EPOCH><BSTAR>.28157E-3</BSTAR><MEAN_MOTION_DOT>.86E-5</MEAN_MOTION_DOT><MEAN_MOTION_DDOT>0</MEAN_MOTION_DDOT></tleParameters></data></segment></body></omm>
<omm id="CCSDS_OMM_VERS" version="2.0">
<header><CREATION_DATE/><ORIGINATOR/></header><body><segment><metadata><OBJECT_NAME>ORBCOMM FM11</OBJECT_NAME><OBJECT_ID>1997-084C</OBJECT_ID><CENTER_NAME>EARTH</CENTER_NAME><REF_FRAME>TEME</REF_FRAME><TIME_SYSTEM>UTC</TIME_SYSTEM><MEAN_ELEMENT_THEORY>SGP4</MEAN_ELEMENT_THEORY></metadata><data><meanElements><EPOCH>2025-06-22T13:22:53.079456</EPOCH><MEAN_MOTION>14.45362840</MEAN_MOTION><ECCENTRICITY>.0005829</ECCENTRICITY><INCLINATION>45.0150</INCLINATION><RA_OF_ASC_NODE>345.1163</RA_OF_ASC_NODE><ARG_OF_PERICENTER>232.9578</ARG_OF_PERICENTER><MEAN_ANOMALY>127.0740</MEAN_ANOMALY></meanElements><tleParameters><EPHEMERIS_TYPE>0</EPHEMERIS_TYPE><CLASSIFICATION_TYPE>U</CLASSIFICATION_TYPE><NORAD_CAT_ID>25114</NORAD_CAT_ID><ELEMENT_SET_NO>999</ELEMENT_SET_NO><REV_AT_EPOCH>44228</REV_AT_EPOCH><BSTAR>.27363E-3</BSTAR><MEAN_MOTION_DOT>.826E-5</MEAN_MOTION_DOT><MEAN_MOTION_DDOT>0</MEAN_MOTION_DDOT></tleParameters></data></segment></body></omm>
<omm id="CCSDS_OMM_VERS" version="2.0">
<header><CREATION_DATE/><ORIGINATOR/></header><body><segment><metadata><OBJECT_NAME>ORBCOMM FM12</OBJECT_NAME><OBJECT_ID>1997-084D</OBJECT_ID><CENTER_NAME>EARTH</CENTER_NAME><REF_FRAME>TEME</REF_FRAME><TIME_SYSTEM>UTC</TIME_SYSTEM><MEAN_ELEMENT_THEORY>SGP4</MEAN_ELEMENT_THEORY></metadata><data><meanElements><EPOCH>2025-06-22T12:28:45.033888</EPOCH><MEAN_MOTION>14.45385012</MEAN_MOTION><ECCENTRICITY>.0004915</ECCENTRICITY><INCLINATION>45.0159</INCLINATION><RA_OF_ASC_NODE>345.0466</RA_OF_ASC_NODE><ARG_OF_PERICENTER>228.2154</ARG_OF_PERICENTER><MEAN_ANOMALY>131.8278</MEAN_ANOMALY></meanElements><tleParameters><EPHEMERIS_TYPE>0</EPHEMERIS_TYPE><CLASSIFICATION_TYPE>U</CLASSIFICATION_TYPE><NORAD_CAT_ID>25115</NORAD_CAT_ID><ELEMENT_SET_NO>999</ELEMENT_SET_NO><REV_AT_EPOCH>44204</REV_AT_EPOCH><BSTAR>.26769E-3</BSTAR><MEAN_MOTION_DOT>.806E-5</MEAN_MOTION_DOT><MEAN_MOTION_DDOT>0</MEAN_MOTION_DDOT></tleParameters></data></segment></body></omm>
<omm id="CCSDS_OMM_VERS" version="2.0">
<header><CREATION_DATE/><ORIGINATOR/></header><body><segment><metadata><OBJECT_NAME>ORBCOMM FM09</OBJECT_NAME><OBJECT_ID>1997-084E</OBJECT_ID><CENTER_NAME>EARTH</CENTER_NAME><REF_FRAME>TEME</REF_FRAME><TIME_SYSTEM>UTC</TIME_SYSTEM><MEAN_ELEMENT_THEORY>SGP4</MEAN_ELEMENT_THEORY></metadata><data><meanElements><EPOCH>2025-06-22T13:15:56.558016</EPOCH><MEAN_MOTION>14.45260427</MEAN_MOTION><ECCENTRICITY>.0006344</ECCENTRICITY><INCLINATION>45.0164</INCLINATION><RA_OF_ASC_NODE>345.8272</RA_OF_ASC_NODE><ARG_OF_PERICENTER>220.7941</ARG_OF_PERICENTER><MEAN_ANOMALY>139.2436</MEAN_ANOMALY></meanElements><tleParameters><EPHEMERIS_TYPE>0</EPHEMERIS_TYPE><CLASSIFICATION_TYPE>U</CLASSIFICATION_TYPE><NORAD_CAT_ID>25116</NORAD_CAT_ID><ELEMENT_SET_NO>999</ELEMENT_SET_NO><REV_AT_EPOCH>44225</REV_AT_EPOCH><BSTAR>.26642E-3</BSTAR><MEAN_MOTION_DOT>.799E-5</MEAN_MOTION_DOT><MEAN_MOTION_DDOT>0</MEAN_MOTION_DDOT></tleParameters></data></segment></body></omm>

</ndm>
